$$SOE
2461288.500000000, A.D. 2026-Sep-05 00:00:00.0000, -5.246980196501542E+08, 6.648641161271495E+09, -6.916180953342986E+08,
2461295.500000000, A.D. 2026-Sep-12 00:00:00.0000, -5.272761517001402E+08, 6.648658736238040E+09, -6.925101179894218E+08,
2461302.500000000, A.D. 2026-Sep-19 00:00:00.0000, -5.298541716390303E+08, 6.648675188706198E+09, -6.934020289908199E+08,
2461309.500000000, A.D. 2026-Sep-26 00:00:00.0000, -5.324320802432324E+08, 6.648690517259622E+09, -6.942938281053991E+08,
2461316.500000000, A.D. 2026-Oct-03 00:00:00.0000, -5.350098778405852E+08, 6.648704720135283E+09, -6.951855151385207E+08,
2461323.500000000, A.D. 2026-Oct-10 00:00:00.0000, -5.375875643267052E+08, 6.648717795366150E+09, -6.960770899248810E+08,
2461330.500000000, A.D. 2026-Oct-17 00:00:00.0000, -5.401651392162704E+08, 6.648729740850313E+09, -6.969685523230503E+08,
2461337.500000000, A.D. 2026-Oct-24 00:00:00.0000, -5.427426017048656E+08, 6.648740554324040E+09, -6.978599022176681E+08,
2461344.500000000, A.D. 2026-Oct-31 00:00:00.0000, -5.453199506426090E+08, 6.648750233172091E+09, -6.987511395436685E+08,
2461351.500000000, A.D. 2026-Nov-07 00:00:00.0000, -5.478971840805062E+08, 6.648758774149402E+09, -6.996422643574252E+08,
2461358.500000000, A.D. 2026-Nov-14 00:00:00.0000, -5.504742981886477E+08, 6.648766173901564E+09, -7.005332769005086E+08,
2461365.500000000, A.D. 2026-Nov-21 00:00:00.0000, -5.530512873580085E+08, 6.648772430965965E+09, -7.014241774339366E+08,
2461372.500000000, A.D. 2026-Nov-28 00:00:00.0000, -5.556281464839323E+08, 6.648777546245517E+09, -7.023149659969339E+08,
2461379.500000000, A.D. 2026-Dec-05 00:00:00.0000, -5.582048718117725E+08, 6.648781521298678E+09, -7.032056424755392E+08,
2461386.500000000, A.D. 2026-Dec-12 00:00:00.0000, -5.607814601797640E+08, 6.648784357556721E+09, -7.040962067416434E+08,
2461393.500000000, A.D. 2026-Dec-19 00:00:00.0000, -5.633579085463864E+08, 6.648786056474664E+09, -7.049866586885922E+08,
2461400.500000000, A.D. 2026-Dec-26 00:00:00.0000, -5.659342139446505E+08, 6.648786619747843E+09, -7.058769982209995E+08,
2461407.500000000, A.D. 2027-Jan-02 00:00:00.0000, -5.685103735877335E+08, 6.648786049403018E+09, -7.067672252395136E+08,
2461414.500000000, A.D. 2027-Jan-09 00:00:00.0000, -5.710863850096295E+08, 6.648784347784078E+09, -7.076573396294711E+08,
2461421.500000000, A.D. 2027-Jan-16 00:00:00.0000, -5.736622462065285E+08, 6.648781517440893E+09, -7.085473412559073E+08,
2461428.500000000, A.D. 2027-Jan-23 00:00:00.0000, -5.762379557343422E+08, 6.648777560881508E+09, -7.094372299723320E+08,
2461435.500000000, A.D. 2027-Jan-30 00:00:00.0000, -5.788135125762519E+08, 6.648772480139712E+09, -7.103270056644542E+08,
2461442.500000000, A.D. 2027-Feb-06 00:00:00.0000, -5.813889153571903E+08, 6.648766276497838E+09, -7.112166683400941E+08,
2461449.500000000, A.D. 2027-Feb-13 00:00:00.0000, -5.839641613671281E+08, 6.648758951584335E+09, -7.121062181235204E+08,
2461456.500000000, A.D. 2027-Feb-20 00:00:00.0000, -5.865392477583613E+08, 6.648750509055074E+09, -7.129956550022435E+08,
2461463.500000000, A.D. 2027-Feb-27 00:00:00.0000, -5.891141735218387E+08, 6.648740953644568E+09, -7.138849787170978E+08,
2461470.500000000, A.D. 2027-Mar-06 00:00:00.0000, -5.916889392250195E+08, 6.648730289509771E+09, -7.147741889155219E+08,
2461477.500000000, A.D. 2027-Mar-13 00:00:00.0000, -5.942635461118160E+08, 6.648718519915840E+09, -7.156632852539825E+08,
2461484.500000000, A.D. 2027-Mar-20 00:00:00.0000, -5.968379956941772E+08, 6.648705647429239E+09, -7.165522674143205E+08,
2461491.500000000, A.D. 2027-Mar-27 00:00:00.0000, -5.994122896333480E+08, 6.648691674069252E+09, -7.174411350975759E+08,
2461498.500000000, A.D. 2027-Apr-03 00:00:00.0000, -6.019864297079096E+08, 6.648676601370141E+09, -7.183298880178857E+08,
2461505.500000000, A.D. 2027-Apr-10 00:00:00.0000, -6.045604178073573E+08, 6.648660430377056E+09, -7.192185259002857E+08,
2461512.500000000, A.D. 2027-Apr-17 00:00:00.0000, -6.071342559291391E+08, 6.648643161561335E+09, -7.201070484856389E+08,
2461519.500000000, A.D. 2027-Apr-24 00:00:00.0000, -6.097079460999452E+08, 6.648624794593081E+09, -7.209954555550714E+08,
2461526.500000000, A.D. 2027-May-01 00:00:00.0000, -6.122814899216119E+08, 6.648605327998774E+09, -7.218837469991190E+08,
2461533.500000000, A.D. 2027-May-08 00:00:00.0000, -6.148548874342479E+08, 6.648584759452379E+09, -7.227719228986218E+08,
2461540.500000000, A.D. 2027-May-15 00:00:00.0000, -6.174281367934548E+08, 6.648563087653319E+09, -7.236599834021199E+08,
2461547.500000000, A.D. 2027-May-22 00:00:00.0000, -6.200012363255014E+08, 6.648540313199756E+09, -7.245479284681060E+08,
2461554.500000000, A.D. 2027-May-29 00:00:00.0000, -6.225741856045313E+08, 6.648516436988892E+09, -7.254357578998270E+08,
2461561.500000000, A.D. 2027-Jun-05 00:00:00.0000, -6.251469846669621E+08, 6.648491459276063E+09, -7.263234714977789E+08,
2461568.500000000, A.D. 2027-Jun-12 00:00:00.0000, -6.277196333706049E+08, 6.648465379824423E+09, -7.272110691103618E+08,
2461575.500000000, A.D. 2027-Jun-19 00:00:00.0000, -6.302921312295223E+08, 6.648438198210170E+09, -7.280985506286144E+08,
2461582.500000000, A.D. 2027-Jun-26 00:00:00.0000, -6.328644774452151E+08, 6.648409914022043E+09, -7.289859159718070E+08,
2461589.500000000, A.D. 2027-Jul-03 00:00:00.0000, -6.354366710020015E+08, 6.648380526963377E+09, -7.298731650751553E+08,
2461596.500000000, A.D. 2027-Jul-10 00:00:00.0000, -6.380087107897532E+08, 6.648350036865403E+09, -7.307602978820448E+08,
2461603.500000000, A.D. 2027-Jul-17 00:00:00.0000, -6.405805957176352E+08, 6.648318443573001E+09, -7.316473143470526E+08,
2461610.500000000, A.D. 2027-Jul-24 00:00:00.0000, -6.431523246624249E+08, 6.648285746640021E+09, -7.325342144689891E+08,
2461617.500000000, A.D. 2027-Jul-31 00:00:00.0000, -6.457238958399805E+08, 6.648251945069759E+09, -7.334209983722160E+08,
2461624.500000000, A.D. 2027-Aug-07 00:00:00.0000, -6.482953058005780E+08, 6.648217038252265E+09, -7.343076663235419E+08,
2461631.500000000, A.D. 2027-Aug-14 00:00:00.0000, -6.508665503492401E+08, 6.648181027845189E+09, -7.351942184942172E+08,
2461638.500000000, A.D. 2027-Aug-21 00:00:00.0000, -6.534376267728353E+08, 6.648143917233995E+09, -7.360806547986422E+08,
2461645.500000000, A.D. 2027-Aug-28 00:00:00.0000, -6.560085339428873E+08, 6.648105709774739E+09, -7.369669750261602E+08,
2461652.500000000, A.D. 2027-Sep-04 00:00:00.0000, -6.585792714752389E+08, 6.648066408321732E+09, -7.378531789532342E+08,
2461659.500000000, A.D. 2027-Sep-11 00:00:00.0000, -6.611498393418874E+08, 6.648026015378767E+09, -7.387392663622808E+08,
2461666.500000000, A.D. 2027-Sep-18 00:00:00.0000, -6.637202378018057E+08, 6.647984533223882E+09, -7.396252370327506E+08,
2461673.500000000, A.D. 2027-Sep-25 00:00:00.0000, -6.662904674218882E+08, 6.647941963930180E+09, -7.405110907320535E+08,
2461680.500000000, A.D. 2027-Oct-02 00:00:00.0000, -6.688605291129541E+08, 6.647898309310687E+09, -7.413968272112334E+08,
2461687.500000000, A.D. 2027-Oct-09 00:00:00.0000, -6.714304241582946E+08, 6.647853570783090E+09, -7.422824462080588E+08,
2461694.500000000, A.D. 2027-Oct-16 00:00:00.0000, -6.740001541714921E+08, 6.647807749099916E+09, -7.431679474680574E+08,
2461701.500000000, A.D. 2027-Oct-23 00:00:00.0000, -6.765697207235110E+08, 6.647760843938830E+09, -7.440533308079495E+08,
2461708.500000000, A.D. 2027-Oct-30 00:00:00.0000, -6.791391242642040E+08, 6.647712853963793E+09, -7.449385962061543E+08,
2461715.500000000, A.D. 2027-Nov-06 00:00:00.0000, -6.817083635015622E+08, 6.647663778485400E+09, -7.458237437215259E+08,
2461722.500000000, A.D. 2027-Nov-13 00:00:00.0000, -6.842774372240657E+08, 6.647613618644543E+09, -7.467087732279994E+08,
2461729.500000000, A.D. 2027-Nov-20 00:00:00.0000, -6.868463456642200E+08, 6.647562375933562E+09, -7.475936844099224E+08,
2461736.500000000, A.D. 2027-Nov-27 00:00:00.0000, -6.894150897856725E+08, 6.647510051019577E+09, -7.484784769241557E+08,
2461743.500000000, A.D. 2027-Dec-04 00:00:00.0000, -6.919836705174547E+08, 6.647456643783943E+09, -7.493631504686155E+08,
2461750.500000000, A.D. 2027-Dec-11 00:00:00.0000, -6.945520884859148E+08, 6.647402153613964E+09, -7.502477047854898E+08,
2461757.500000000, A.D. 2027-Dec-18 00:00:00.0000, -6.971203439693637E+08, 6.647346579607860E+09, -7.511321396519828E+08,
2461764.500000000, A.D. 2027-Dec-25 00:00:00.0000, -6.996884369234411E+08, 6.647289920690922E+09, -7.520164548726232E+08,
2461771.500000000, A.D. 2028-Jan-01 00:00:00.0000, -7.022563670357852E+08, 6.647232175657567E+09, -7.529006502756290E+08,
$$EOE